CCSDS_OMM_VERS,COMMENT,CREATION_DATE,ORIGINATOR,OBJECT_NAME,OBJECT_ID,CENTER_NAME,REF_FRAME,TIME_SYSTEM,MEAN_ELEMENT_THEORY,EPOCH,MEAN_MOTION,ECCENTRICITY,INCLINATION,RA_OF_ASC_NODE,ARG_OF_PERICENTER,MEAN_ANOMALY,EPHEMERIS_TYPE,CLASSIFICATION_TYPE,NORAD_CAT_ID,ELEMENT_SET_NO,REV_AT_EPOCH,BSTAR,MEAN_MOTION_DOT,MEAN_MOTION_DDOT,SEMIMAJOR_AXIS,PERIOD,APOAPSIS,PERIAPSIS,OBJECT_TYPE,RCS_SIZE,COUNTRY_CODE,LAUNCH_DATE,SITE,DECAY_DATE,FILE,GP_ID,TLE_LINE0,TLE_LINE1,TLE_LINE2
2,GENERATED VIA SPACE-TRACK.ORG API,2023-05-14T14:46:12,18 SPCS,KSF3-C,2023-001K,EARTH,TEME,UTC,SGP4,2023-05-14T11:10:57.157248,15.16120885,0.0012002,97.4794,194.4838,128.2965,288.3337,0,U,55018,999,1995,0.00080765,0.00015547,0,6895.715,94.979,525.856,509.304,PAYLOAD,MEDIUM,LUXE,2023-01-03,AFETR,,3907582,231793439,0 KSF3-C,1 55018U 23001K   23134.46593932  .00015547  00000-0  80765-3 0  9990,2 55018  97.4794 194.4838 0012002 128.2965 288.3337 15.16120885 19951
2,GENERATED VIA SPACE-TRACK.ORG API,2023-05-14T17:40:53,18 SPCS,KSF3-C,2023-001K,EARTH,TEME,UTC,SGP4,2023-05-14T14:47:31.668000,15.16125604,0.0011956,97.4795,194.6321,127.9404,29.0545,0,U,55018,999,1997,0.00080805,0.00015557,0,6895.7,94.979,525.81,509.321,PAYLOAD,MEDIUM,LUXE,2023-01-03,AFETR,,3907744,231823131,0 KSF3-C,1 55018U 23001K   23134.61633875  .00015557  00000-0  80805-3 0  9994,2 55018  97.4795 194.6321 0011956 127.9404  29.0545 15.16125604 19979
2,GENERATED VIA SPACE-TRACK.ORG API,2023-05-14T22:56:12,18 SPCS,KSF3-C,2023-001K,EARTH,TEME,UTC,SGP4,2023-05-14T17:55:11.888832,15.16129042,0.0011891,97.4794,194.7603,127.4835,20.3852,0,U,55018,999,1999,0.00080428,0.00015485,0,6895.69,94.979,525.755,509.355,PAYLOAD,MEDIUM,LUXE,2023-01-03,AFETR,,3907820,231826378,0 KSF3-C,1 55018U 23001K   23134.74666538  .00015485  00000-0  80428-3 0  9991,2 55018  97.4794 194.7603 0011891 127.4835  20.3852 15.16129042 19990
2,GENERATED VIA SPACE-TRACK.ORG API,2023-05-15T03:39:04,18 SPCS,KSF3-C,2023-001K,EARTH,TEME,UTC,SGP4,2023-05-14T22:34:22.276704,15.16133743,0.0011861,97.4794,194.951,126.4219,358.9235,0,U,55018,999,2002,0.00079623,0.00015331,0,6895.676,94.978,525.72,509.362,PAYLOAD,MEDIUM,LUXE,2023-01-03,AFETR,,3908005,231856992,0 KSF3-C,1 55018U 23001K   23134.94053561  .00015331  00000-0  79623-3 0  9994,2 55018  97.4794 194.9510 0011861 126.4219 358.9235 15.16133743 20025
2,GENERATED VIA SPACE-TRACK.ORG API,2023-05-15T06:46:17,18 SPCS,KSF3-C,2023-001K,EARTH,TEME,UTC,SGP4,2023-05-15T04:41:19.556736,15.16141173,0.0011868,97.4795,195.2023,125.6166,309.7273,0,U,55018,999,2006,0.00079336,0.00015278,0,6895.653,94.978,525.702,509.334,PAYLOAD,MEDIUM,LUXE,2023-01-03,AFETR,,3908108,231859738,0 KSF3-C,1 55018U 23001K   23135.19536524  .00015278  00000-0  79336-3 0  9998,2 55018  97.4795 195.2023 0011868 125.6166 309.7273 15.16141173 20064
2,GENERATED VIA SPACE-TRACK.ORG API,2023-05-15T15:16:12,18 SPCS,KSF3-C,2023-001K,EARTH,TEME,UTC,SGP4,2023-05-15T12:44:58.399872,15.16150884,0.0011821,97.4794,195.5335,124.4311,342.9446,0,U,55018,999,2011,0.00078929,0.00015204,0,6895.624,94.977,525.64,509.337,PAYLOAD,MEDIUM,LUXE,2023-01-03,AFETR,,3908406,231865887,0 KSF3-C,1 55018U 23001K   23135.53123148  .00015204  00000-0  78929-3 0  9996,2 55018  97.4794 195.5335 0011821 124.4311 342.9446 15.16150884 20116
2,GENERATED VIA SPACE-TRACK.ORG API,2023-05-15T23:06:12,18 SPCS,KSF3-C,2023-001K,EARTH,TEME,UTC,SGP4,2023-05-15T19:01:40.658880,15.16157243,0.0011871,97.4795,195.7918,124.1422,330.1733,0,U,55018,999,2015,0.00077845,0.00014996,0,6895.605,94.977,525.655,509.284,PAYLOAD,MEDIUM,LUXE,2023-01-03,AFETR,,3908765,231900224,0 KSF3-C,1 55018U 23001K   23135.79283170  .00014996  00000-0  77845-3 0  9999,2 55018  97.4795 195.7918 0011871 124.1422 330.1733 15.16157243 20159
2,GENERATED VIA SPACE-TRACK.ORG API,2023-05-16T02:46:58,18 SPCS,KSF3-C,2023-001K,EARTH,TEME,UTC,SGP4,2023-05-15T19:01:40.658880,15.16157243,0.0011871,97.4795,195.7918,124.1422,330.1733,0,U,55018,999,2015,0.00077845,0.00014996,0,6895.605,94.977,525.655,509.284,PAYLOAD,MEDIUM,LUXE,2023-01-03,AFETR,,3908892,231929739,0 KSF3-C,1 55018U 23001K   23135.79283170  .00014996  00000-0  77845-3 0  9999,2 55018  97.4795 195.7918 0011871 124.1422 330.1733 15.16157243 20159
2,GENERATED VIA SPACE-TRACK.ORG API,2023-05-16T07:06:12,18 SPCS,KSF3-C,2023-001K,EARTH,TEME,UTC,SGP4,2023-05-16T04:23:32.286912,15.16167101,0.0012071,97.4796,196.1762,123.2672,299.365,0,U,55018,999,2021,0.00076703,0.0001478,0,6895.575,94.976,525.763,509.116,PAYLOAD,MEDIUM,LUXE,2023-01-03,AFETR,,3908967,231931322,0 KSF3-C,1 55018U 23001K   23136.18301258  .00014780  00000-0  76703-3 0  9994,2 55018  97.4796 196.1762 0012071 123.2672 299.3650 15.16167101 20217
2,GENERATED VIA SPACE-TRACK.ORG API,2023-05-16T14:36:11,18 SPCS,KSF3-C,2023-001K,EARTH,TEME,UTC,SGP4,2023-05-16T11:00:12.708288,15.16174128,0.0012042,97.4797,196.448,122.44,2.793,0,U,55018,999,2025,0.0007594,0.00014635,0,6895.553,94.976,525.722,509.115,PAYLOAD,MEDIUM,LUXE,2023-01-03,AFETR,,3909243,231937973,0 KSF3-C,1 55018U 23001K   23136.45848042  .00014635  00000-0  75940-3 0  9992,2 55018  97.4797 196.4480 0012042 122.4400   2.7930 15.16174128 20254
2,GENERATED VIA SPACE-TRACK.ORG API,2023-05-16T18:38:57,18 SPCS,KSF3-C,2023-001K,EARTH,TEME,UTC,SGP4,2023-05-16T11:00:12.708288,15.16174128,0.0012042,97.4797,196.448,122.44,2.793,0,U,55018,999,2025,0.0007594,0.00014635,0,6895.553,94.976,525.722,509.115,PAYLOAD,MEDIUM,LUXE,2023-01-03,AFETR,,3909472,231967280,0 KSF3-C,1 55018U 23001K   23136.45848042  .00014635  00000-0  75940-3 0  9992,2 55018  97.4797 196.4480 0012042 122.4400   2.7930 15.16174128 20254
2,GENERATED VIA SPACE-TRACK.ORG API,2023-05-16T17:36:15,18 SPCS,KSF3-C,2023-001K,EARTH,TEME,UTC,SGP4,2023-05-16T15:12:19.790496,15.16169185,0.0012099,97.4798,196.6212,122.7422,237.4979,0,U,55018,999,2028,0.00058313,0.00011216,0,6895.568,94.976,525.776,509.09,PAYLOAD,MEDIUM,LUXE,2023-01-03,AFETR,,3909463,231942127,0 KSF3-C,1 55018U 23001K   23136.63356239  .00011216  00000-0  58313-3 0  9991,2 55018  97.4798 196.6212 0012099 122.7422 237.4979 15.16169185 20289
2,GENERATED VIA SPACE-TRACK.ORG API,2023-05-16T20:06:17,18 SPCS,KSF3-C,2023-001K,EARTH,TEME,UTC,SGP4,2023-05-16T16:47:21.989184,15.16170634,0.0012104,97.4798,196.6862,122.4992,237.7412,0,U,55018,999,2029,0.00057623,0.00011082,0,6895.564,94.976,525.775,509.083,PAYLOAD,MEDIUM,LUXE,2023-01-03,AFETR,,3909479,231969386,0 KSF3-C,1 55018U 23001K   23136.69956006  .00011082  00000-0  57623-3 0  9999,2 55018  97.4798 196.6862 0012104 122.4992 237.7412 15.16170634 20293
2,GENERATED VIA SPACE-TRACK.ORG API,2023-05-17T04:59:22,18 SPCS,KSF3-C,2023-001K,EARTH,TEME,UTC,SGP4,2023-05-16T22:00:10.101312,15.16183902,0.0012114,97.4796,196.8993,121.3664,343.789,0,U,55018,999,2032,0.00073559,0.00014177,0,6895.524,94.975,525.742,509.035,PAYLOAD,MEDIUM,LUXE,2023-01-03,AFETR,,3909742,232001256,0 KSF3-C,1 55018U 23001K   23136.91678358  .00014177  00000-0  73559-3 0  9999,2 55018  97.4796 196.8993 0012114 121.3664 343.7890 15.16183902 20327
2,GENERATED VIA SPACE-TRACK.ORG API,2023-05-17T06:26:12,18 SPCS,KSF3-C,2023-001K,EARTH,TEME,UTC,SGP4,2023-05-17T02:17:35.078496,15.16178623,0.0012134,97.4798,197.0766,121.3747,238.8674,0,U,55018,999,2035,0.00053612,0.00010308,0,6895.54,94.976,525.772,509.038,PAYLOAD,MEDIUM,LUXE,2023-01-03,AFETR,,3909779,232003288,0 KSF3-C,1 55018U 23001K   23137.09554489  .00010308  00000-0  53612-3 0  9997,2 55018  97.4798 197.0766 0012134 121.3747 238.8674 15.16178623 20355
2,GENERATED VIA SPACE-TRACK.ORG API,2023-05-17T14:26:13,18 SPCS,KSF3-C,2023-001K,EARTH,TEME,UTC,SGP4,2023-05-17T10:12:45.831744,15.16184931,0.0012153,97.4797,197.4019,120.3115,239.9322,0,U,55018,999,2040,0.00051547,9.909e-05,0,6895.521,94.975,525.766,509.005,PAYLOAD,MEDIUM,LUXE,2023-01-03,AFETR,,3910068,232009838,0 KSF3-C,1 55018U 23001K   23137.42553046  .00009909  00000-0  51547-3 0  9992,2 55018  97.4797 197.4019 0012153 120.3115 239.9322 15.16184931 20405
2,GENERATED VIA SPACE-TRACK.ORG API,2023-05-17T22:36:12,18 SPCS,KSF3-C,2023-001K,EARTH,TEME,UTC,SGP4,2023-05-17T18:07:56.466624,15.16191564,0.0012173,97.4796,197.7271,119.276,240.9691,0,U,55018,999,2045,0.00048494,9.32e-05,0,6895.5,94.975,525.759,508.972,PAYLOAD,MEDIUM,LUXE,2023-01-03,AFETR,,3910343,232016325,0 KSF3-C,1 55018U 23001K   23137.75551466  .00009320  00000-0  48494-3 0  9996,2 55018  97.4796 197.7271 0012173 119.2760 240.9691 15.16191564 20458
2,GENERATED VIA SPACE-TRACK.ORG API,2023-05-18T04:40:19,18 SPCS,KSF3-C,2023-001K,EARTH,TEME,UTC,SGP4,2023-05-17T19:42:58.576320,15.16192849,0.0012179,97.4796,197.7922,119.0946,241.1508,0,U,55018,999,2046,0.00048538,9.329e-05,0,6895.497,94.975,525.76,508.964,PAYLOAD,MEDIUM,LUXE,2023-01-03,AFETR,,3910633,232046594,0 KSF3-C,1 55018U 23001K   23137.82151130  .00009329  00000-0  48538-3 0  9996,2 55018  97.4796 197.7922 0012179 119.0946 241.1508 15.16192849 20469
2,GENERATED VIA SPACE-TRACK.ORG API,2023-05-18T06:36:13,18 SPCS,KSF3-C,2023-001K,EARTH,TEME,UTC,SGP4,2023-05-18T02:03:06.985728,15.16197385,0.0012152,97.4794,198.0524,118.3686,241.8773,0,U,55018,999,2050,0.00048048,9.235e-05,0,6895.483,94.974,525.727,508.968,PAYLOAD,MEDIUM,LUXE,2023-01-03,AFETR,,3910711,232049113,0 KSF3-C,1 55018U 23001K   23138.08549752  .00009235  00000-0  48048-3 0  9998,2 55018  97.4794 198.0524 0012152 118.3686 241.8773 15.16197385 20509
2,GENERATED VIA SPACE-TRACK.ORG API,2023-05-18T14:36:12,18 SPCS,KSF3-C,2023-001K,EARTH,TEME,UTC,SGP4,2023-05-18T11:33:19.448640,15.16204391,0.0012154,97.4793,198.4426,117.2164,243.0308,0,U,55018,999,2056,0.00045354,8.714e-05,0,6895.462,94.974,525.707,508.946,PAYLOAD,MEDIUM,LUXE,2023-01-03,AFETR,,3911017,232057288,0 KSF3-C,1 55018U 23001K   23138.48147510  .00008714  00000-0  45354-3 0  9996,2 55018  97.4793 198.4426 0012154 117.2164 243.0308 15.16204391 20564
